ORBCOMM FM115 [+]       
1 41186U 15081H   24071.30068834  .00000957  00000+0  23093-3 0  9991
2 41186  46.9990  77.5206 0000305 293.7271  66.3583 14.60435972440061
ORBCOMM FM108 [+]       
1 41187U 15081J   24071.45242360  .00001122  00000+0  28814-3 0  9997
2 41187  47.0040 129.2152 0002910 325.6640  34.4056 14.56346211439302
ORBCOMM FM117 [+]       
1 41188U 15081K   24071.55555001  .00001125  00000+0  28872-3 0  9995
2 41188  47.0000 127.6446 0003168 338.6870  21.3882 14.56350775439416
ORBCOMM FM116 [+]       
1 41189U 15081L   24071.54499049  .00000943  00000+0  24831-3 0  9992
2 41189  47.0002 217.5102 0001311 108.4347 251.6680 14.56302460438171
